BY70-2                  
1 45857U 20042B   24109.56563157  .00114123  00000+0  59000-2 0  9998
2 45857  97.9085 199.9078 0003340  73.4477 286.7121 15.15740178205478
SALSAT                  
1 46495U 20068K   24109.40705477  .00011832  00000+0  69092-3 0  9997
2 46495  97.8113  67.2653 0015150 150.3870 209.8220 15.11985719195278
RADFXSAT-2 (AO-109)     
1 47311U 21002C   24109.62336339  .01779905  26800-2  16504-2 0  9996
2 47311  60.6541 289.4250 0002165 306.7353  53.3577 16.12495578181975
UVSQ-SAT                
1 47438U 21006AB  24108.66122936  .00058293  00000+0  14091-2 0  9998
2 47438  97.3340 168.6120 0007669  83.6876 276.5244 15.40925379179398
LEDSAT                  
1 49069U 21073D   24109.42383830  .00025406  00000+0  10980-2 0  9994
2 49069  97.4410 181.0483 0021564 133.3896 226.9141 15.22245963147355
XW-3 (CAS-9)            
1 50466U 21131B   24109.56060481  .00001682  00000+0  55381-3 0  9996
2 50466  98.5273 194.9172 0003118 314.1273  45.9658 14.39493599121427
TEVEL-3                 
1 50988U 22002E   24109.57193480  .00118291  00000+0  20141-2 0  9990
2 50988  97.3849 183.1734 0005365 208.6687 151.4271 15.50957014125764
TEVEL-8                 
1 50989U 22002F   24109.47891945  .00117058  00000+0  20046-2 0  9995
2 50989  97.3869 183.1658 0005361 208.6439 151.4519 15.50799020125747
TEVEL-5                 
1 50998U 22002Q   24109.55032350  .00139362  00000+0  21173-2 0  9995
2 50998  97.3838 184.1957 0005919 202.6574 157.4419 15.54061057125830
TEVEL-6                 
1 50999U 22002R   24109.55347317  .00138781  00000+0  21170-2 0  9999
2 50999  97.3831 184.1753 0005852 202.2483 157.8517 15.53951948125838
TEVEL-1                 
1 51013U 22002AF  24109.46746914  .00114144  00000+0  19563-2 0  9993
2 51013  97.3841 182.9410 0005361 205.7322 154.3664 15.50786715125748
TEVEL-7                 
1 51062U 22002CG  24109.47041990  .00115150  00000+0  19647-2 0  9991
2 51062  97.3858 183.1317 0005402 205.3865 154.7123 15.50909775125740
TEVEL-4                 
1 51063U 22002CH  24109.56491085  .00117979  00000+0  20314-2 0  9990
2 51063  97.3861 183.1490 0005417 205.9708 154.1272 15.50641125125757
TEVEL-2                 
1 51069U 22002CP  24109.57065104  .00116555  00000+0  19826-2 0  9991
2 51069  97.3847 183.1397 0005337 207.7470 152.3498 15.50991369125769
GREENCUBE               
1 53106U 22080B   24108.26757684 -.00000003  00000+0  00000+0 0  9999
2 53106  70.1428 213.6795 0007982 119.5170 240.6286  6.42557181 41352
KUZBASS-300 (RS34S)     
1 53375U 22096F   24108.72357032  .00342517  00000+0  18760-2 0  9991
2 53375  97.3851  27.6592 0006901 118.3369 241.8595 15.78864933 94984
UTMN (RS23S)            
1 53376U 22096G   24108.75585764  .00462405  00000+0  18142-2 0  9993
2 53376  97.3832  28.6395 0007330 127.4997 232.6941 15.85780119 95054
MIET-AIS (RS28S)        
1 53377U 22096H   24109.08491731  .00222933  00000+0  17933-2 0  9998
2 53377  97.3907  27.0881 0005450 115.8034 244.3791 15.70254855 94975
KAI-1 (RS26S)           
1 53378U 22096J   24109.58122847  .00092966  00000+0  12254-2 0  9995
2 53378  97.3980  25.6261 0004011 117.5797 242.5867 15.58099910 94913
ISOI (RS19S)            
1 53381U 22096M   24108.79929209  .00229966  00000+0  16966-2 0  9994
2 53381  97.3920  27.6178 0005336 106.2885 253.8965 15.72310416 94988
CUBESX-HSE-2 (RS21S)    
1 53383U 22096P   24108.50429456  .00436283  00000+0  18327-2 0  9999
2 53383  97.3827  28.5451 0006742 115.0213 245.1758 15.84410035 95026
SIREN (RS30S)           
1 53384U 22096Q   24109.55562877  .00148032  00000+0  14933-2 0  9992
2 53384  97.3944  27.1052 0004229  89.7317 270.4427 15.64881239 95018
CAS-5A (FO-118)         
1 54684U 22167C   24109.55313364  .00039233  00000+0  15152-2 0  9996
2 54684  97.5971 253.1690 0009933 354.6560   5.4570 15.26108789 75196
STRATOSAT-TK 1 (RS52S)  
1 57167U 23091B   24109.56628235  .00022417  00000+0  13739-2 0  9994
2 57167  97.6184 162.8769 0014504 326.3905  33.6403 15.10085276 44556
UMKA 1 (RS40S)          
1 57172U 23091G   24109.57810879  .00009284  00000+0  62899-3 0  9997
2 57172  97.6177 162.2469 0016007 328.5826  31.4444 15.06589573 44512
CUBESX-HSE 3 (RS42S)    
1 57178U 23091N   24109.58056197  .00012631  00000+0  83160-3 0  9993
2 57178  97.6216 162.5386 0016376 322.3064  37.7015 15.07563960 44525
MONITOR-4 (RS57S)       
1 57182U 23091S   24109.55139273  .00012170  00000+0  80928-3 0  9999
2 57182  97.6213 162.3788 0016726 323.7590  36.2503 15.07199006 44510
MONITOR-2 (RS39S)       
1 57184U 23091U   24109.61486928  .00007707  00000+0  51994-3 0  9991
2 57184  97.6221 162.6211 0013074 318.3854  41.6378 15.06840894 44530
SVYATOBOR 1 (RS60S)     
1 57187U 23091X   24109.55916122  .00011502  00000+0  74913-3 0  9995
2 57187  97.6219 162.8531 0012615 314.9740  45.0465 15.08030991 44540
VIZARD-METEO (RS38S)    
1 57189U 23091Z   24109.56418136  .00014806  00000+0  93469-3 0  9997
2 57189  97.6210 163.1251 0011491 312.3013  47.7241 15.09128369 44563
NANOZOND 1 (RS49S)      
1 57190U 23091AA  24109.58735481  .00018900  00000+0  11319-2 0  9998
2 57190  97.6182 163.4556 0009722 317.4648  42.5827 15.11010724 44592
POLYTECH-UNIVERSE 3 (R*)
1 57191U 23091AB  24109.61634890  .00008845  00000+0  59639-3 0  9990
2 57191  97.6187 162.3402 0018899 334.9933  25.0377 15.06740542 44523
UTMN 2 (RS27S)          
1 57203U 23091AP  24109.53793831  .00012853  00000+0  82044-3 0  9996
2 57203  97.6213 163.0043 0011584 313.9846  46.0426 15.08756067 44552
ARCCUBE 1 (RS25S)       
1 57205U 23091AR  24109.53567797  .00022247  00000+0  13037-2 0  9991
2 57205  97.6161 163.4476 0009798 319.6609  40.3893 15.11762403 44598
KUZGTU 1 (RS47S)        
1 57217U 23091AV  24109.58437987  .00012078  00000+0  79756-3 0  9998
2 57217  97.6194 162.4391 0016285 324.0494  35.9637 15.07464953 44526
HADES-D (SO-121)        
1 58567U 23174CY  24109.14567614  .00062273  00000+0  26274-2 0  9990
2 58567  97.4587 184.9706 0013622  87.4246 272.8549 15.22970054 24629
